start=new Date('2022-09-24T00:00:00.000Z').valueOf();
sats=[{"PERIOD":"91.527","CLASSIFICATION_TYPE":"U","LAUNCH_DATE":"2022-09-11","MEAN_MOTION_DOT":"-0.00000380","NORAD_CAT_ID":"53786","ELEMENT_SET_NO":"999","BSTAR":"0.00000171030000","COUNTRY_CODE":"US","EPHEMERIS_TYPE":"0","APOAPSIS":"350.396","EPOCH":"2022-09-23T20:00:01.999872","CENTER_NAME":"EARTH","FILE":"3581681","REV_AT_EPOCH":"130","MEAN_MOTION_DDOT":"0.0000000000000","TLE_LINE1":"1 53786U 22111P   22266.83335648 -.00000380  00000-0  17103-5 0  9993","ECCENTRICITY":"0.00013960","OBJECT_TYPE":"PAYLOAD","DECAY_DATE":null,"MEAN_ANOMALY":"35.2374","MEAN_MOTION":"15.73306345","MEAN_ELEMENT_THEORY":"SGP4","TLE_LINE2":"2 53786  53.2162 203.8757 0001396 127.6748  35.2374 15.73306345  1301","ARG_OF_PERICENTER":"127.6748","REF_FRAME":"TEME","RA_OF_ASC_NODE":"203.8757","PERIAPSIS":"348.518","OBJECT_NAME":"STARLINK-4631","RCS_SIZE":null,"OBJECT_ID":"2022-111P","INCLINATION":"53.2162","TIME_SYSTEM":"UTC","GP_ID":"213337233","SITE":"AFETR","SEMIMAJOR_AXIS":"6727.592"},{"OBJECT_NAME":"STARLINK-4743","PERIAPSIS":"348.574","RA_OF_ASC_NODE":"203.8699","REF_FRAME":"TEME","SITE":"AFETR","GP_ID":"213336490","SEMIMAJOR_AXIS":"6727.640","INCLINATION":"53.2173","TIME_SYSTEM":"UTC","OBJECT_ID":"2022-111Q","RCS_SIZE":null,"OBJECT_TYPE":"PAYLOAD","TLE_LINE1":"1 53787U 22111Q   22266.83335648  .00077957  00000-0  55261-3 0  9992","ECCENTRICITY":"0.00013850","MEAN_MOTION_DDOT":"0.0000000000000","REV_AT_EPOCH":"130","ARG_OF_PERICENTER":"139.5319","MEAN_ELEMENT_THEORY":"SGP4","TLE_LINE2":"2 53787  53.2173 203.8699 0001385 139.5319  26.2393 15.73289361  1302","MEAN_MOTION":"15.73289361","MEAN_ANOMALY":"26.2393","DECAY_DATE":null,"APOAPSIS":"350.437","EPHEMERIS_TYPE":"0","COUNTRY_CODE":"US","BSTAR":"0.00055261000000","FILE":"3581681","CENTER_NAME":"EARTH","EPOCH":"2022-09-23T20:00:01.999872","LAUNCH_DATE":"2022-09-11","PERIOD":"91.528","CLASSIFICATION_TYPE":"U","ELEMENT_SET_NO":"999","NORAD_CAT_ID":"53787","MEAN_MOTION_DOT":"0.00077957"},{"RCS_SIZE":null,"OBJECT_ID":"2022-111R","INCLINATION":"53.2045","TIME_SYSTEM":"UTC","SEMIMAJOR_AXIS":"6701.226","GP_ID":"213337069","SITE":"AFETR","REF_FRAME":"TEME","RA_OF_ASC_NODE":"203.3165","PERIAPSIS":"318.923","OBJECT_NAME":"STARLINK-4744","MEAN_ANOMALY":"132.2083","DECAY_DATE":null,"MEAN_MOTION":"15.82600749","TLE_LINE2":"2 53788  53.2045 203.3165 0006220 300.7900 132.2083 15.82600749  1306","MEAN_ELEMENT_THEORY":"SGP4","ARG_OF_PERICENTER":"300.7900","REV_AT_EPOCH":"130","MEAN_MOTION_DDOT":"0.0000000000000","TLE_LINE1":"1 53788U 22111R   22266.83335648  .00114340  00000-0  53035-3 0  9998","OBJECT_TYPE":"PAYLOAD","ECCENTRICITY":"0.00062200","EPOCH":"2022-09-23T20:00:01.999872","CENTER_NAME":"EARTH","FILE":"3581681","BSTAR":"0.00053035000000","COUNTRY_CODE":"US","EPHEMERIS_TYPE":"0","APOAPSIS":"327.259","MEAN_MOTION_DOT":"0.00114340","NORAD_CAT_ID":"53788","ELEMENT_SET_NO":"999","PERIOD":"90.989","CLASSIFICATION_TYPE":"U","LAUNCH_DATE":"2022-09-11"},{"COUNTRY_CODE":"US","BSTAR":"0.00042202000000","EPHEMERIS_TYPE":"0","APOAPSIS":"350.584","EPOCH":"2022-09-23T20:00:01.999872","CENTER_NAME":"EARTH","FILE":"3581681","LAUNCH_DATE":"2022-09-11","PERIOD":"91.532","CLASSIFICATION_TYPE":"U","MEAN_MOTION_DOT":"0.00059087","NORAD_CAT_ID":"53789","ELEMENT_SET_NO":"999","REF_FRAME":"TEME","RA_OF_ASC_NODE":"203.8681","OBJECT_NAME":"STARLINK-4666","PERIAPSIS":"348.797","RCS_SIZE":null,"INCLINATION":"53.2167","TIME_SYSTEM":"UTC","OBJECT_ID":"2022-111S","GP_ID":"213337637","SEMIMAJOR_AXIS":"6727.826","SITE":"AFETR","REV_AT_EPOCH":"130","MEAN_MOTION_DDOT":"0.0000000000000","TLE_LINE1":"1 53789U 22111S   22266.83335648  .00059087  00000-0  42202-3 0  9999","OBJECT_TYPE":"PAYLOAD","ECCENTRICITY":"0.00013280","MEAN_ANOMALY":"51.6315","DECAY_DATE":null,"MEAN_ELEMENT_THEORY":"SGP4","TLE_LINE2":"2 53789  53.2167 203.8681 0001328 115.2556  51.6315 15.73224405  1303","MEAN_MOTION":"15.73224405","ARG_OF_PERICENTER":"115.2556"},{"FILE":"3581681","CENTER_NAME":"EARTH","EPOCH":"2022-09-23T20:00:01.999872","APOAPSIS":"350.509","EPHEMERIS_TYPE":"0","BSTAR":"0.00030942000000","COUNTRY_CODE":"US","ELEMENT_SET_NO":"999","NORAD_CAT_ID":"53790","MEAN_MOTION_DOT":"0.00042833","PERIOD":"91.539","CLASSIFICATION_TYPE":"U","LAUNCH_DATE":"2022-09-11","SEMIMAJOR_AXIS":"6728.193","GP_ID":"213337473","SITE":"AFETR","OBJECT_ID":"2022-111T","INCLINATION":"53.2169","TIME_SYSTEM":"UTC","RCS_SIZE":null,"PERIAPSIS":"349.606","OBJECT_NAME":"STARLINK-4734","RA_OF_ASC_NODE":"203.8728","REF_FRAME":"TEME","ARG_OF_PERICENTER":"85.9282","MEAN_MOTION":"15.73095670","TLE_LINE2":"2 53790  53.2169 203.8728 0000671  85.9282  78.8986 15.73095670  1303","MEAN_ELEMENT_THEORY":"SGP4","MEAN_ANOMALY":"78.8986","DECAY_DATE":null,"TLE_LINE1":"1 53790U 22111T   22266.83335648  .00042833  00000-0  30942-3 0  9990","OBJECT_TYPE":"PAYLOAD","ECCENTRICITY":"0.00006710","MEAN_MOTION_DDOT":"0.0000000000000","REV_AT_EPOCH":"130"},{"MEAN_MOTION":"15.82475598","TLE_LINE2":"2 53791  53.2043 205.2829 0006488 304.1176  55.9233 15.82475598  1967","MEAN_ELEMENT_THEORY":"SGP4","DECAY_DATE":null,"MEAN_ANOMALY":"55.9233","ARG_OF_PERICENTER":"304.1176","REV_AT_EPOCH":"196","TLE_LINE1":"1 53791U 22111U   22266.44156347  .00099127  00000-0  46368-3 0  9992","OBJECT_TYPE":"PAYLOAD","ECCENTRICITY":"0.00064880","MEAN_MOTION_DDOT":"0.0000000000000","OBJECT_ID":"2022-111U","INCLINATION":"53.2043","TIME_SYSTEM":"UTC","RCS_SIZE":null,"GP_ID":"213304878","SEMIMAJOR_AXIS":"6701.579","SITE":"AFETR","REF_FRAME":"TEME","PERIAPSIS":"319.096","OBJECT_NAME":"STARLINK-A","RA_OF_ASC_NODE":"205.2829","MEAN_MOTION_DOT":"0.00099127","ELEMENT_SET_NO":"999","NORAD_CAT_ID":"53791","PERIOD":"90.997","CLASSIFICATION_TYPE":"U","LAUNCH_DATE":"2022-09-11","EPOCH":"2022-09-23T10:35:51.083808","FILE":"3581351","CENTER_NAME":"EARTH","BSTAR":"0.00046368000000","COUNTRY_CODE":"US","APOAPSIS":"327.792","EPHEMERIS_TYPE":"0"},{"REF_FRAME":"TEME","RA_OF_ASC_NODE":"203.8695","OBJECT_NAME":"STARLINK-4739","PERIAPSIS":"348.684","RCS_SIZE":null,"INCLINATION":"53.2170","TIME_SYSTEM":"UTC","OBJECT_ID":"2022-111V","GP_ID":"213336654","SEMIMAJOR_AXIS":"6727.776","SITE":"AFETR","REV_AT_EPOCH":"130","MEAN_MOTION_DDOT":"0.0000000000000","TLE_LINE1":"1 53792U 22111V   22266.83335648 -.00024676  00000-0 -17160-3 0  9996","OBJECT_TYPE":"PAYLOAD","ECCENTRICITY":"0.00014230","DECAY_DATE":null,"MEAN_ANOMALY":"58.5023","MEAN_ELEMENT_THEORY":"SGP4","TLE_LINE2":"2 53792  53.2170 203.8695 0001423 107.8046  58.5023 15.73241838  1304","MEAN_MOTION":"15.73241838","ARG_OF_PERICENTER":"107.8046","COUNTRY_CODE":"US","BSTAR":"-0.00017160000000","EPHEMERIS_TYPE":"0","APOAPSIS":"350.598","EPOCH":"2022-09-23T20:00:01.999872","CENTER_NAME":"EARTH","FILE":"3581681","LAUNCH_DATE":"2022-09-11","PERIOD":"91.531","CLASSIFICATION_TYPE":"U","MEAN_MOTION_DOT":"-0.00024676","NORAD_CAT_ID":"53792","ELEMENT_SET_NO":"999"},{"EPOCH":"2022-09-23T20:00:01.999872","FILE":"3581681","CENTER_NAME":"EARTH","COUNTRY_CODE":"US","BSTAR":"0.00036200000000","APOAPSIS":"350.560","EPHEMERIS_TYPE":"0","MEAN_MOTION_DOT":"0.00050512","ELEMENT_SET_NO":"999","NORAD_CAT_ID":"53793","LAUNCH_DATE":"2022-09-11","PERIOD":"91.533","CLASSIFICATION_TYPE":"U","INCLINATION":"53.2172","TIME_SYSTEM":"UTC","OBJECT_ID":"2022-111W","RCS_SIZE":null,"SEMIMAJOR_AXIS":"6727.867","GP_ID":"213337398","SITE":"AFETR","REF_FRAME":"TEME","OBJECT_NAME":"STARLINK-4728","PERIAPSIS":"348.903","RA_OF_ASC_NODE":"203.8659","MEAN_ELEMENT_THEORY":"SGP4","TLE_LINE2":"2 53793  53.2172 203.8659 0001232 120.8398  47.2394 15.73210034  1300","MEAN_MOTION":"15.73210034","MEAN_ANOMALY":"47.2394","DECAY_DATE":null,"ARG_OF_PERICENTER":"120.8398","REV_AT_EPOCH":"130","TLE_LINE1":"1 53793U 22111W   22266.83335648  .00050512  00000-0  36200-3 0  9999","OBJECT_TYPE":"PAYLOAD","ECCENTRICITY":"0.00012320","MEAN_MOTION_DDOT":"0.0000000000000"},{"GP_ID":"213337234","SEMIMAJOR_AXIS":"6727.888","SITE":"AFETR","RCS_SIZE":null,"OBJECT_ID":"2022-111X","INCLINATION":"53.2163","TIME_SYSTEM":"UTC","RA_OF_ASC_NODE":"203.8665","PERIAPSIS":"348.889","OBJECT_NAME":"STARLINK-4730","REF_FRAME":"TEME","ARG_OF_PERICENTER":"119.1267","MEAN_ANOMALY":"48.3506","DECAY_DATE":null,"MEAN_MOTION":"15.73202433","MEAN_ELEMENT_THEORY":"SGP4","TLE_LINE2":"2 53794  53.2163 203.8665 0001284 119.1267  48.3506 15.73202433  1302","MEAN_MOTION_DDOT":"0.0000000000000","ECCENTRICITY":"0.00012840","TLE_LINE1":"1 53794U 22111X   22266.83335648  .00060244  00000-0  43054-3 0  9998","OBJECT_TYPE":"PAYLOAD","REV_AT_EPOCH":"130","CENTER_NAME":"EARTH","FILE":"3581681","EPOCH":"2022-09-23T20:00:01.999872","EPHEMERIS_TYPE":"0","APOAPSIS":"350.617","BSTAR":"0.00043054000000","COUNTRY_CODE":"US","NORAD_CAT_ID":"53794","ELEMENT_SET_NO":"999","MEAN_MOTION_DOT":"0.00060244","PERIOD":"91.533","CLASSIFICATION_TYPE":"U","LAUNCH_DATE":"2022-09-11"},{"MEAN_MOTION_DDOT":"0.0000000000000","ECCENTRICITY":"0.00014500","TLE_LINE1":"1 53795U 22111Y   22266.83335648  .00075349  00000-0  53674-3 0  9990","OBJECT_TYPE":"PAYLOAD","REV_AT_EPOCH":"130","ARG_OF_PERICENTER":"115.1929","DECAY_DATE":null,"MEAN_ANOMALY":"53.4669","MEAN_ELEMENT_THEORY":"SGP4","TLE_LINE2":"2 53795  53.2168 203.8650 0001450 115.1929  53.4669 15.73188616  1301","MEAN_MOTION":"15.73188616","RA_OF_ASC_NODE":"203.8650","OBJECT_NAME":"STARLINK-4742","PERIAPSIS":"348.817","REF_FRAME":"TEME","GP_ID":"213336491","SEMIMAJOR_AXIS":"6727.928","SITE":"AFETR","RCS_SIZE":null,"INCLINATION":"53.2168","TIME_SYSTEM":"UTC","OBJECT_ID":"2022-111Y","LAUNCH_DATE":"2022-09-11","CLASSIFICATION_TYPE":"U","PERIOD":"91.534","NORAD_CAT_ID":"53795","ELEMENT_SET_NO":"999","MEAN_MOTION_DOT":"0.00075349","EPHEMERIS_TYPE":"0","APOAPSIS":"350.768","COUNTRY_CODE":"US","BSTAR":"0.00053674000000","CENTER_NAME":"EARTH","FILE":"3581681","EPOCH":"2022-09-23T20:00:01.999872"}];
